{
    "links": {
        "self": "http://www.neowsapp.com/rest/v1/neo/3756948?api_key=iIulBulltgU6a56xZRHN4H3l9WmuAYTsLGpBGhQ2"
    },
    "id": "3756948",
    "neo_reference_id": "3756948",
    "name": "(2016 PE8)",
    "designation": "2016 PE8",
    "nasa_jpl_url": "http://ssd.jpl.nasa.gov/sbdb.cgi?sstr=3756948",
    "absolute_magnitude_h": 26.6,
    "estimated_diameter": {
        "kilometers": {
            "estimated_diameter_min": 0.0127219879,
            "estimated_diameter_max": 0.0284472297
        },
        "meters": {
            "estimated_diameter_min": 12.7219878539,
            "estimated_diameter_max": 28.4472296503
        },
        "miles": {
            "estimated_diameter_min": 0.0079050743,
            "estimated_diameter_max": 0.0176762835
        },
        "feet": {
            "estimated_diameter_min": 41.7388066307,
            "estimated_diameter_max": 93.330808926
        }
    },
    "is_potentially_hazardous_asteroid": false,
    "close_approach_data": [
        {
            "close_approach_date": "2016-07-22",
            "close_approach_date_full": "2016-Jul-22 06:43",
            "epoch_date_close_approach": 1469169780000,
            "relative_velocity": {
                "kilometers_per_second": "9.7378967881",
                "kilometers_per_hour": "35056.428437248",
                "miles_per_hour": "21782.7013253556"
            },
            "miss_distance": {
                "astronomical": "0.0231104673",
                "lunar": "8.9899717797",
                "kilometers": "3457276.682784651",
                "miles": "2148252.1149081438"
            },
            "orbiting_body": "Earth"
        }
    ],
    "orbital_data": {
        "orbit_id": "2",
        "orbit_determination_date": "2017-04-06 08:24:41",
        "first_observation_date": "2016-08-03",
        "last_observation_date": "2016-08-07",
        "data_arc_in_days": 4,
        "observations_used": 11,
        "orbit_uncertainty": "9",
        "minimum_orbit_intersection": ".017507",
        "jupiter_tisserand_invariant": "3.159",
        "epoch_osculation": "2457604.5",
        "eccentricity": ".6075892010227165",
        "semi_major_axis": "2.538031226307385",
        "inclination": "2.382914846083799",
        "ascending_node_longitude": "138.9899445760262",
        "orbital_period": "1476.875440387397",
        "perihelion_distance": ".9959508613445754",
        "perihelion_argument": "135.6760244006685",
        "aphelion_distance": "4.080111591270195",
        "perihelion_time": "2457571.916907908783",
        "mean_anomaly": "7.942384870156187",
        "mean_motion": ".2437578621427741",
        "equinox": "J2000",
        "orbit_class": {
            "orbit_class_type": "APO",
            "orbit_class_description": "Near-Earth asteroid orbits which cross the Earth’s orbit similar to that of 1862 Apollo",
            "orbit_class_range": "a (semi-major axis) > 1.0 AU; q (perihelion) < 1.017 AU"
        }
    },
    "is_sentry_object": false
}